NORAD_CAT_ID,OBJECT_NAME,OBJECT_TYPE,EPOCH,MEAN_MOTION,ECCENTRICITY,INCLINATION,RA_OF_ASC_NODE,ARG_OF_PERICENTER,MEAN_ANOMALY,BSTAR,MEAN_MOTION_DOT,MEAN_MOTION_DDOT,TLE_LINE0,TLE_LINE1,TLE_LINE2,SEMIMAJOR_AXIS,PERIOD,APOGEE,PERIGEE,DECAYED
50803.0,STARLINK-3321,PAYLOAD,2022-03-10 22:00:01,15.52497511,0.0001826,53.2175,248.2706,31.181,64.7494,-0.012409,-0.00707827,0.0,0 STARLINK-3321,1 50803U 22001A   22069.91668981 -.00707827  00000-0 -12409-1 0  9998,2 50803  53.2175 248.2706 0001826  31.1810  64.7494 15.52497511  3693,6787.574000000001,92.754,410.67800000000005,408.199,0.0
50803.0,STARLINK-3321,PAYLOAD,2022-03-11 14:00:01,15.51480262,0.0001877,53.2177,245.0751,36.48,186.2617,-0.0129449999999999,-0.0071141,0.0,0 STARLINK-3321,1 50803U 22001A   22070.58334491 -.00711410  00000-0 -12945-1 0  9997,2 50803  53.2177 245.0751 0001877  36.4800 186.2617 15.51480262  3672,6790.54,92.815,413.68,411.131,0.0
50803.0,STARLINK-3321,PAYLOAD,2022-03-11 22:00:00,15.50968648,0.0001788,53.2176,243.4815,35.874,249.3862,-0.013129,-0.00717623,0.0,0 STARLINK-3321,1 50803U 22001A   22070.91667824 -.00717623  00000-0 -13129-1 0  9990,2 50803  53.2176 243.4815 0001788  35.8740 249.3862 15.50968648  3683,6792.034000000002,92.845,415.11300000000006,412.684,0.0
50803.0,STARLINK-3321,PAYLOAD,2022-03-12 04:00:00,15.50590532,0.0001786,53.2175,242.2844,38.1699,203.5768,-0.013463,-0.0072536999999999,0.0,0 STARLINK-3321,1 50803U 22001A   22071.16667824 -.00725370  00000-0 -13463-1 0  9997,2 50803  53.2175 242.2844 0001786  38.1699 203.5768 15.50590532 11407,6793.138000000001,92.868,416.216,413.79,0.0
50803.0,STARLINK-3321,PAYLOAD,2022-03-12 14:00:01,15.49952453,0.0002151,53.2177,240.2935,22.2588,26.2005,-0.013749,-0.00724262,0.0,0 STARLINK-3321,1 50803U 22001A   22071.58334491 -.00724262  00000-0 -13749-1 0  9990,2 50803  53.2177 240.2935 0002151  22.2588  26.2005 15.49952453  3706,6795.002,92.906,418.329,415.405,0.0
50803.0,STARLINK-3321,PAYLOAD,2022-03-12 22:00:00,15.49371816,0.0001171,53.2173,238.7029,15.7385,93.4147,-0.010361,-0.00539753,0.0,0 STARLINK-3321,1 50803U 22001A   22071.91667824 -.00539753  00000-0 -10361-1 0  9992,2 50803  53.2173 238.7029 0001171  15.7385  93.4147 15.49371816  3702,6796.7,92.941,419.36,417.769,0.0
50803.0,STARLINK-3321,PAYLOAD,2022-03-13 06:00:00,15.48946963,0.0001673,53.2173,237.1099,37.3789,131.8334,3.6592e-05,1.563e-05,0.0,0 STARLINK-3321,1 50803U 22001A   22072.25001157  .00001563  00000-0  36592-4 0  9999,2 50803  53.2173 237.1099 0001673  37.3789 131.8334 15.48946963 11576,6797.941999999999,92.966,420.945,418.67,0.0
50803.0,STARLINK-3321,PAYLOAD,2022-03-13 14:00:01,15.48933913,0.0001648,53.2164,235.5175,38.7124,190.2951,0.00041091,0.00022171,0.0,0 STARLINK-3321,1 50803U 22001A   22072.58334491  .00022171  00000-0  41091-3 0  9992,2 50803  53.2164 235.5175 0001648  38.7124 190.2951 15.48933913  3692,6797.981,92.967,420.966,418.725,0.0
50803.0,STARLINK-3321,PAYLOAD,2022-03-13 20:00:01,15.49025278,0.000173,53.2149,234.3174,38.9041,145.0437,0.0012636,0.00069754,0.0,0 STARLINK-3321,1 50803U 22001A   22072.83334491  .00069754  00000-0  12636-2 0  9990,2 50803  53.2149 234.3174 0001730  38.9041 145.0437 15.49025278 11663,6797.7130000000025,92.962,420.754,418.402,0.0
50803.0,STARLINK-3321,PAYLOAD,2022-03-13 22:00:01,15.49038629,0.000173,53.2148,233.9196,36.8524,252.1325,0.001096,0.00060398,0.0,0 STARLINK-3321,1 50803U 22001A   22072.91668981  .00060398  00000-0  10960-2 0  9996,2 50803  53.2148 233.9196 0001730  36.8524 252.1325 15.49038629  3698,6797.674,92.961,420.715,418.36300000000006,0.0
50803.0,STARLINK-3321,PAYLOAD,2022-03-14 04:00:00,15.4910799,0.0001638,53.215,232.7247,40.3133,203.5764,0.00046592,0.00025365,0.0,0 STARLINK-3321,1 50803U 22001A   22073.16667824  .00025365  00000-0  46592-3 0  9995,2 50803  53.2150 232.7247 0001638  40.3133 203.5764 15.49107990 11715,6797.471,92.957,420.45,418.223,0.0
50803.0,STARLINK-3321,PAYLOAD,2022-03-14 12:00:00,15.49211793,0.0001653,53.2154,231.1331,41.674,262.2465,-0.00085521,-0.00047561,0.0,0 STARLINK-3321,1 50803U 22001A   22073.50001157 -.00047561  00000-0 -85521-3 0  9993,2 50803  53.2154 231.1331 0001653  41.6740 262.2465 15.49211793 11763,6797.168000000002,92.95,420.156,417.909,0.0
50803.0,STARLINK-3321,PAYLOAD,2022-03-14 14:00:01,15.49237431,0.0001754999999999,53.2153,230.7358,38.1953,10.8058,-0.002366,-0.00129554,0.0,0 STARLINK-3321,1 50803U 22001A   22073.58335648 -.00129554  00000-0 -23660-2 0  9994,2 50803  53.2153 230.7358 0001755  38.1953  10.8058 15.49237431  3679,6797.093000000003,92.949,420.15,417.765,0.0
50803.0,STARLINK-3321,PAYLOAD,2022-03-14 20:00:01,15.49122873,0.0001858,53.2155,229.5438,36.8434,327.1218,-0.0026191,-0.00142556,0.0,0 STARLINK-3321,1 50803U 22001A   22073.83334491 -.00142556  00000-0 -26191-2 0  9996,2 50803  53.2155 229.5438 0001858  36.8434 327.1218 15.49122873 11820,6797.428000000001,92.956,420.556,418.03,0.0
50803.0,STARLINK-3321,PAYLOAD,2022-03-15 02:00:01,15.49090848,0.000178,53.2154,228.3491,33.0193,285.9045,-0.0048268999999999,-0.00258245,0.0,0 STARLINK-3321,1 50803U 22001A   22074.08334491 -.00258245  00000-0 -48269-2 0  9997,2 50803  53.2154 228.3491 0001780  33.0193 285.9045 15.49090848 11858,6797.521,92.958,420.596,418.176,0.0
50803.0,STARLINK-3321,PAYLOAD,2022-03-15 20:00:01,15.48640466,0.0002098,53.2158,224.7715,37.4706,145.7715,0.0040529,0.00226226,0.0,0 STARLINK-3321,1 50803U 22001A   22074.83334491  .00226226  00000-0  40529-2 0  9993,2 50803  53.2158 224.7715 0002098  37.4706 145.7715 15.48640466 11978,6798.839,92.985,422.131,419.278,0.0
50803.0,STARLINK-3321,PAYLOAD,2022-03-15 22:00:00,15.48677211,0.0002068,53.2154,224.3737,35.3147,252.7888,0.0039328,0.00219603,0.0,0 STARLINK-3321,1 50803U 22001A   22074.91667824  .00219603  00000-0  39328-2 0  9997,2 50803  53.2154 224.3737 0002068  35.3147 252.7888 15.48677211  3673,6798.732,92.983,422.003,419.191,0.0
50803.0,STARLINK-3321,PAYLOAD,2022-03-16 12:00:00,15.48900397,0.0001816,53.2158,221.5892,35.0739,267.3209,0.00040323,0.00021721,0.0,0 STARLINK-3321,1 50803U 22001A   22075.50001157  .00021721  00000-0  40323-3 0  9994,2 50803  53.2158 221.5892 0001816  35.0739 267.3209 15.48900397 12079,6798.079000000002,92.969,421.17800000000005,418.709,0.0
50803.0,STARLINK-3321,PAYLOAD,2022-03-16 14:00:01,15.48918786,0.0001922,53.2156,221.1922,33.2775,14.0458,-0.00022017,-0.00012505,0.0,0 STARLINK-3321,1 50803U 22001A   22075.58334491 -.00012505  00000-0 -22017-3 0  9994,2 50803  53.2156 221.1922 0001922  33.2775  14.0458 15.48918786  3697,6798.025,92.968,421.196,418.583,0.0
50803.0,STARLINK-3321,PAYLOAD,2022-03-16 20:00:01,15.48888289,0.0002105,53.2154,220.0003,31.4961,330.6328,0.00071745,0.00039066,0.0,0 STARLINK-3321,1 50803U 22001A   22075.83334491  .00039066  00000-0  71745-3 0  9993,2 50803  53.2154 220.0003 0002105  31.4961 330.6328 15.48888289  3679,6798.114000000001,92.97,421.41,418.548,0.0
50803.0,STARLINK-3321,PAYLOAD,2022-03-17 14:00:01,15.48953691,0.0002103,53.2158,216.4203,36.0245,190.529,0.00014838,7.711e-05,0.0,0 STARLINK-3321,1 50803U 22001A   22076.58334491  .00007711  00000-0  14838-3 0  9998,2 50803  53.2158 216.4203 0002103  36.0245 190.5290 15.48953691 12242,6797.9230000000025,92.966,421.217,418.358,0.0
50803.0,STARLINK-3321,PAYLOAD,2022-03-17 22:00:00,15.48993514,0.0002145,53.2158,214.83,28.8144,257.5288,-0.0014012,-0.00076767,0.0,0 STARLINK-3321,1 50803U 22001A   22076.91667824 -.00076767  00000-0 -14012-2 0  9996,2 50803  53.2158 214.8300 0002145  28.8144 257.5288 15.48993514  3682,6797.806,92.964,421.129,418.213,0.0
50803.0,STARLINK-3321,PAYLOAD,2022-03-18 12:00:00,15.48954775,0.0002044,53.217,212.0464,30.1845,270.8177,-0.00010428,-6.17e-05,0.0,0 STARLINK-3321,1 50803U 22001A   22077.50001157 -.00006170  00000-0 -10428-3 0  9992,2 50803  53.2170 212.0464 0002044  30.1845 270.8177 15.48954775 12387,6797.919,92.966,421.174,418.395,0.0
50803.0,STARLINK-3321,PAYLOAD,2022-03-18 14:00:01,15.48968471,0.0002147,53.2171,211.6504,28.6245,17.3209,-0.00069139,-0.00038257,0.0,0 STARLINK-3321,1 50803U 22001A   22077.58334491 -.00038257  00000-0 -69139-3 0  9994,2 50803  53.2171 211.6504 0002147  28.6245  17.3209 15.48968471  3689,6797.879,92.965,421.204,418.285,0.0
50803.0,STARLINK-3321,PAYLOAD,2022-03-18 22:00:00,15.49024363,0.0002082,53.217,210.0637,28.4447,77.2957,-0.0048029,-0.00256433,0.0,0 STARLINK-3321,1 50803U 22001A   22077.91667824 -.00256433  00000-0 -48029-2 0  9992,2 50803  53.2170 210.0637 0002082  28.4447  77.2957 15.49024363  3698,6797.715999999999,92.962,420.996,418.166,0.0
50803.0,STARLINK-3321,PAYLOAD,2022-03-19 02:00:01,15.49029717,0.0001729,53.2176,209.2691,30.416,285.2847,-0.0099845,-0.00515541,0.0,0 STARLINK-3321,1 50803U 22001A   22078.08335648 -.00515541  00000-0 -99845-2 0  9997,2 50803  53.2176 209.2691 0001729  30.4160 285.2847 15.49029717 12479,6797.7,92.961,420.741,418.39,0.0
50803.0,STARLINK-3321,PAYLOAD,2022-03-19 14:00:01,15.48417755,0.0002292,53.2175,206.8883,24.4646,200.4935,-0.014347,-0.00716443,0.0,0 STARLINK-3321,1 50803U 22001A   22078.58334491 -.00716443  00000-0 -14347-1 0  9994,2 50803  53.2175 206.8883 0002292  24.4646 200.4935 15.48417755 12550,6799.491,92.998,422.915,419.798,0.0
50803.0,STARLINK-3321,PAYLOAD,2022-03-19 20:00:01,15.48035038,0.0001889,53.2173,205.6979,34.8073,144.2269,-0.01451,-0.00714945,0.0,0 STARLINK-3321,1 50803U 22001A   22078.83334491 -.00714945  00000-0 -14510-1 0  9999,2 50803  53.2173 205.6979 0001889  34.8073 144.2269 15.48035038 12590,6800.611999999999,93.021,423.761,421.192,0.0
50803.0,STARLINK-3321,PAYLOAD,2022-03-19 22:00:01,15.479127599999998,0.0001723,53.2172,205.3004,37.6478,246.1027,-0.014777,-0.00724219,0.0,0 STARLINK-3321,1 50803U 22001A   22078.91668981 -.00724219  00000-0 -14777-1 0  9992,2 50803  53.2172 205.3004 0001723  37.6478 246.1027 15.47912760  3692,6800.97,93.028,424.007,421.663,0.0
